{"type": "FeatureCollection", "features": [ {"type": "Feature", "properties": {"norad_id": 34570, "name": "COSMOS 2251 DEB", "group": "cosmos-2251-debris", "lat": 60.317572212984466, "lon": -108.20881927117479, "alt_km": 780.6327368388465, "timestamp": "2025-12-10T21:43:22.485716+00:00", "meta": {"OBJECT_NAME": "COSMOS 2251 DEB", "OBJECT_ID": "1993-036VG", "EPOCH": "2025-12-10T10:15:47.270880", "MEAN_MOTION": 13.99813899, "ECCENTRICITY": 0.01902081, "INCLINATION": 73.9575, "RA_OF_ASC_NODE": 222.3032, "ARG_OF_PERICENTER": 105.3156, "MEAN_ANOMALY": 75.4929, "EPHEMERIS_TYPE": 0, "CLASSIFICATION_TYPE": "U", "NORAD_CAT_ID": 34570, "ELEMENT_SET_NO": 999, "REV_AT_EPOCH": 85568, "BSTAR": 0.00064940557, "MEAN_MOTION_DOT": 1.09e-05, "MEAN_MOTION_DDOT": 0}, "tle": {"line1": "1 34570U 93036VG  25344.42763045  .00001090  00000+0  64941-3 0  9995", "line2": "2 34570  73.9575 222.3032 0190208 105.3156  75.4929 13.99813899855680"}}, "geometry": {"type": "Point", "coordinates": [-108.20881927117479, 60.317572212984466]}}, {"type": "Feature", "properties": {"norad_id": 34571, "name": "COSMOS 2251 DEB", "group": "cosmos-2251-debris", "lat": -43.69162658729699, "lon": 170.00284991691709, "alt_km": 738.1153035113566, "timestamp": "2025-12-10T21:43:22.485726+00:00", "meta": {"OBJECT_NAME": "COSMOS 2251 DEB", "OBJECT_ID": "1993-036VH", "EPOCH": "2025-12-09T06:09:38.106720", "MEAN_MOTION": 14.48721172, "ECCENTRICITY": 0.0066557, "INCLINATION": 74.0386, "RA_OF_ASC_NODE": 188.9585, "ARG_OF_PERICENTER": 224.7562, "MEAN_ANOMALY": 134.8218, "EPHEMERIS_TYPE": 0, "CLASSIFICATION_TYPE": "U", "NORAD_CAT_ID": 34571, "ELEMENT_SET_NO": 999, "REV_AT_EPOCH": 87243, "BSTAR": 0.0025604, "MEAN_MOTION_DOT": 9.914e-05, "MEAN_MOTION_DDOT": 0}, "tle": {"line1": "1 34571U 93036VH  25343.25669105  .00009914  00000+0  25604-2 0  9993", "line2": "2 34571  74.0386 188.9585 0066557 224.7562 134.8218 14.48721172872439"}}, "geometry": {"type": "Point", "coordinates": [170.00284991691709, -43.69162658729699]}}, {"type": "Feature", "properties": {"norad_id": 34572, "name": "COSMOS 2251 DEB", "group": "cosmos-2251-debris", "lat": 11.796612995742727, "lon": -64.47527200357821, "alt_km": 686.1861440995062, "timestamp": "2025-12-10T21:43:22.485736+00:00", "meta": {"OBJECT_NAME": "COSMOS 2251 DEB", "OBJECT_ID": "1993-036VJ", "EPOCH": "2025-12-10T09:40:05.680992", "MEAN_MOTION": 14.49931847, "ECCENTRICITY": 0.00631641, "INCLINATION": 74.011, "RA_OF_ASC_NODE": 119.902, "ARG_OF_PERICENTER": 194.0511, "MEAN_ANOMALY": 233.1496, "EPHEMERIS_TYPE": 0, "CLASSIFICATION_TYPE": "U", "NORAD_CAT_ID": 34572, "ELEMENT_SET_NO": 999, "REV_AT_EPOCH": 87344, "BSTAR": 0.0046719563, "MEAN_MOTION_DOT": 0.00018558, "MEAN_MOTION_DDOT": 0}, "tle": {"line1": "1 34572U 93036VJ  25344.40284353  .00018558  00000+0  46720-2 0  9996", "line2": "2 34572  74.0110 119.9020 0063164 194.0511 233.1496 14.49931847873443"}}, "geometry": {"type": "Point", "coordinates": [-64.47527200357821, 11.796612995742727]}}, {"type": "Feature", "properties": {"norad_id": 34574, "name": "COSMOS 2251 DEB", "group": "cosmos-2251-debris", "lat": -71.800669536001, "lon": -13.631715563089712, "alt_km": 706.608784997894, "timestamp": "2025-12-10T21:43:22.485746+00:00", "meta": {"OBJECT_NAME": "COSMOS 2251 DEB", "OBJECT_ID": "1993-036VL", "EPOCH": "2025-12-10T10:43:39.407232", "MEAN_MOTION": 14.70563466, "ECCENTRICITY": 0.00668665, "INCLINATION": 74.069, "RA_OF_ASC_NODE": 47.5738, "ARG_OF_PERICENTER": 69.3099, "MEAN_ANOMALY": 305.6088, "EPHEMERIS_TYPE": 0, "CLASSIFICATION_TYPE": "U", "NORAD_CAT_ID": 34574, "ELEMENT_SET_NO": 999, "REV_AT_EPOCH": 88745, "BSTAR": 0.0013396408, "MEAN_MOTION_DOT": 8.403e-05, "MEAN_MOTION_DDOT": 0}, "tle": {"line1": "1 34574U 93036VL  25344.44698388  .00008403  00000+0  13396-2 0  9990", "line2": "2 34574  74.0690  47.5738 0066866  69.3099 305.6088 14.70563466887457"}}, "geometry": {"type": "Point", "coordinates": [-13.631715563089712, -71.800669536001]}}, {"type": "Feature", "properties": {"norad_id": 34576, "name": "COSMOS 2251 DEB", "group": "cosmos-2251-debris", "lat": -10.545899875531013, "lon": 138.6170733592814, "alt_km": 710.2646301268524, "timestamp": "2025-12-10T21:43:22.485756+00:00", "meta": {"OBJECT_NAME": "COSMOS 2251 DEB", "OBJECT_ID": "1993-036VN", "EPOCH": "2025-12-10T12:08:06.953856", "MEAN_MOTION": 14.55396957, "ECCENTRICITY": 0.0008001, "INCLINATION": 74.0338, "RA_OF_ASC_NODE": 142.4288, "ARG_OF_PERICENTER": 277.3537, "MEAN_ANOMALY": 139.4789, "EPHEMERIS_TYPE": 0, "CLASSIFICATION_TYPE": "U", "NORAD_CAT_ID": 34576, "ELEMENT_SET_NO": 999, "REV_AT_EPOCH": 88434, "BSTAR": 0.0013441237, "MEAN_MOTION_DOT": 5.817e-05, "MEAN_MOTION_DDOT": 0}, "tle": {"line1": "1 34576U 93036VN  25344.50563604  .00005817  00000+0  13441-2 0  9998", "line2": "2 34576  74.0338 142.4288 0008001 277.3537 139.4789 14.55396957884346"}}, "geometry": {"type": "Point", "coordinates": [138.6170733592814, -10.545899875531013]}}, {"type": "Feature", "properties": {"norad_id": 34579, "name": "COSMOS 2251 DEB", "group": "cosmos-2251-debris", "lat": -73.61835831630141, "lon": 150.73569007703847, "alt_km": 729.8491662525566, "timestamp": "2025-12-10T21:43:22.485766+00:00", "meta": {"OBJECT_NAME": "COSMOS 2251 DEB", "OBJECT_ID": "1993-036VR", "EPOCH": "2025-12-10T15:36:30.153600", "MEAN_MOTION": 14.45298995, "ECCENTRICITY": 0.0027571, "INCLINATION": 74.0529, "RA_OF_ASC_NODE": 227.7829, "ARG_OF_PERICENTER": 296.746, "MEAN_ANOMALY": 92.0755, "EPHEMERIS_TYPE": 0, "CLASSIFICATION_TYPE": "U", "NORAD_CAT_ID": 34579, "ELEMENT_SET_NO": 999, "REV_AT_EPOCH": 88144, "BSTAR": 0.00063494467, "MEAN_MOTION_DOT": 2.213e-05, "MEAN_MOTION_DDOT": 0}, "tle": {"line1": "1 34579U 93036VR  25344.65034900  .00002213  00000+0  63494-3 0  9990", "line2": "2 34579  74.0529 227.7829 0027571 296.7460  92.0755 14.45298995881449"}}, "geometry": {"type": "Point", "coordinates": [150.73569007703847, -73.61835831630141]}}, {"type": "Feature", "properties": {"norad_id": 34582, "name": "COSMOS 2251 DEB", "group": "cosmos-2251-debris", "lat": -42.893734564574, "lon": 111.22855502590963, "alt_km": 786.0851258322655, "timestamp": "2025-12-10T21:43:22.485776+00:00", "meta": {"OBJECT_NAME": "COSMOS 2251 DEB", "OBJECT_ID": "1993-036VU", "EPOCH": "2025-12-10T12:21:59.521536", "MEAN_MOTION": 14.43305287, "ECCENTRICITY": 0.00477346, "INCLINATION": 74.02, "RA_OF_ASC_NODE": 276.5135, "ARG_OF_PERICENTER": 27.1482, "MEAN_ANOMALY": 333.2155, "EPHEMERIS_TYPE": 0, "CLASSIFICATION_TYPE": "U", "NORAD_CAT_ID": 34582, "ELEMENT_SET_NO": 999, "REV_AT_EPOCH": 87915, "BSTAR": 0.0012242623, "MEAN_MOTION_DOT": 4.158e-05, "MEAN_MOTION_DDOT": 0}, "tle": {"line1": "1 34582U 93036VU  25344.51527224  .00004158  00000+0  12243-2 0  9990", "line2": "2 34582  74.0200 276.5135 0047734  27.1482 333.2155 14.43305287879154"}}, "geometry": {"type": "Point", "coordinates": [111.22855502590963, -42.893734564574]}}, {"type": "Feature", "properties": {"norad_id": 34588, "name": "COSMOS 2251 DEB", "group": "cosmos-2251-debris", "lat": -65.79194940429213, "lon": -127.86618390671113, "alt_km": 747.6836948474302, "timestamp": "2025-12-10T21:43:22.485786+00:00", "meta": {"OBJECT_NAME": "COSMOS 2251 DEB", "OBJECT_ID": "1993-036WA", "EPOCH": "2025-12-10T06:06:05.980032", "MEAN_MOTION": 14.42009503, "ECCENTRICITY": 0.0019129, "INCLINATION": 74.0439, "RA_OF_ASC_NODE": 272.8608, "ARG_OF_PERICENTER": 325.7964, "MEAN_ANOMALY": 185.2763, "EPHEMERIS_TYPE": 0, "CLASSIFICATION_TYPE": "U", "NORAD_CAT_ID": 34588, "ELEMENT_SET_NO": 999, "REV_AT_EPOCH": 87914, "BSTAR": 0.0007832, "MEAN_MOTION_DOT": 2.55e-05, "MEAN_MOTION_DDOT": 0}, "tle": {"line1": "1 34588U 93036WA  25344.25423588  .00002550  00000+0  78320-3 0  9998", "line2": "2 34588  74.0439 272.8608 0019129 325.7964 185.2763 14.42009503879147"}}, "geometry": {"type": "Point", "coordinates": [-127.86618390671113, -65.79194940429213]}}, {"type": "Feature", "properties": {"norad_id": 34589, "name": "COSMOS 2251 DEB", "group": "cosmos-2251-debris", "lat": 35.09007648995771, "lon": -132.52862408818552, "alt_km": 1079.6560746579753, "timestamp": "2025-12-10T21:43:22.485796+00:00", "meta": {"OBJECT_NAME": "COSMOS 2251 DEB", "OBJECT_ID": "1993-036WB", "EPOCH": "2025-12-09T12:13:17.410656", "MEAN_MOTION": 13.8604857, "ECCENTRICITY": 0.02517935, "INCLINATION": 73.9254, "RA_OF_ASC_NODE": 61.5361, "ARG_OF_PERICENTER": 5.5277, "MEAN_ANOMALY": 13.2328, "EPHEMERIS_TYPE": 0, "CLASSIFICATION_TYPE": "U", "NORAD_CAT_ID": 34589, "ELEMENT_SET_NO": 999, "REV_AT_EPOCH": 84667, "BSTAR": 0.00037001793, "MEAN_MOTION_DOT": 5.22e-06, "MEAN_MOTION_DDOT": 0}, "tle": {"line1": "1 34589U 93036WB  25343.50922929  .00000522  00000+0  37002-3 0  9998", "line2": "2 34589  73.9254  61.5361 0251793   5.5277  13.2328 13.86048570846678"}}, "geometry": {"type": "Point", "coordinates": [-132.52862408818552, 35.09007648995771]}}, {"type": "Feature", "properties": {"norad_id": 34590, "name": "COSMOS 2251 DEB", "group": "cosmos-2251-debris", "lat": 29.94719505861222, "lon": -24.490816363581686, "alt_km": 687.2995043968704, "timestamp": "2025-12-10T21:43:22.485806+00:00", "meta": {"OBJECT_NAME": "COSMOS 2251 DEB", "OBJECT_ID": "1993-036WC", "EPOCH": "2025-12-10T08:56:51.819072", "MEAN_MOTION": 14.54821545, "ECCENTRICITY": 0.00679607, "INCLINATION": 74.0436, "RA_OF_ASC_NODE": 327.0281, "ARG_OF_PERICENTER": 97.3317, "MEAN_ANOMALY": 28.045, "EPHEMERIS_TYPE": 0, "CLASSIFICATION_TYPE": "U", "NORAD_CAT_ID": 34590, "ELEMENT_SET_NO": 999, "REV_AT_EPOCH": 89086, "BSTAR": 0.00020824957, "MEAN_MOTION_DOT": 8.92e-06, "MEAN_MOTION_DDOT": 0}, "tle": {"line1": "1 34590U 93036WC  25344.37282198  .00000892  00000+0  20825-3 0  9998", "line2": "2 34590  74.0436 327.0281 0067960  97.3317  28.0450 14.54821545890867"}}, "geometry": {"type": "Point", "coordinates": [-24.490816363581686, 29.94719505861222]}}]}